[{"OBJECT_NAME":"YUNHAI-2 01A","OBJECT_ID":"2018-112A","EPOCH":"2026-03-09T22:34:33.618432","MEAN_MOTION":14.28975171,"ECCENTRICITY":4.652e-5,"INCLINATION":50.0087,"RA_OF_ASC_NODE":105.4873,"ARG_OF_PERICENTER":228.8508,"MEAN_ANOMALY":131.2367,"EPHEMERIS_TYPE":0,"CLASSIFICATION_TYPE":"U","NORAD_CAT_ID":43909,"ELEMENT_SET_NO":999,"REV_AT_EPOCH":37689,"BSTAR":7.7064636e-5,"MEAN_MOTION_DOT":3.5e-7,"MEAN_MOTION_DDOT":0},{"OBJECT_NAME":"UNKNOWN","OBJECT_ID":"","EPOCH":"2026-03-09T01:55:18.433344","MEAN_MOTION":14.2980421,"ECCENTRICITY":0.0046579,"INCLINATION":98.5323,"RA_OF_ASC_NODE":292.1741,"ARG_OF_PERICENTER":70.142,"MEAN_ANOMALY":290.4774,"EPHEMERIS_TYPE":0,"CLASSIFICATION_TYPE":"U","NORAD_CAT_ID":87204,"ELEMENT_SET_NO":999,"REV_AT_EPOCH":63777,"BSTAR":0.0010503,"MEAN_MOTION_DOT":2.689e-5,"MEAN_MOTION_DDOT":0}]
